NORAD_CAT_ID,OBJECT_NAME,OBJECT_TYPE,EPOCH,MEAN_MOTION,ECCENTRICITY,INCLINATION,RA_OF_ASC_NODE,ARG_OF_PERICENTER,MEAN_ANOMALY,BSTAR,MEAN_MOTION_DOT,MEAN_MOTION_DDOT,TLE_LINE0,TLE_LINE1,TLE_LINE2,SEMIMAJOR_AXIS,PERIOD,APOGEE,PERIGEE,DECAYED
53530.0,STARLINK-4482,PAYLOAD,2024-01-09 00:18:39,15.08833089,0.000173,53.218,23.8289,107.0391,253.079,7.4632e-05,9e-06,0.0,0 STARLINK-4482,1 53530U 22101D   24009.01296159  .00000900  00000-0  74632-4 0  9995,2 53530  53.2180  23.8289 0001730 107.0391 253.0790 15.08833089 76791,6917.902,95.438,540.963,538.57,0.0
53530.0,STARLINK-4482,PAYLOAD,2024-01-09 08:15:35,15.0883894,0.0001678,53.2179,22.3424,101.7363,258.3817,0.00011133,1.484e-05,0.0,0 STARLINK-4482,1 53530U 22101D   24009.34415817  .00001484  00000-0  11133-3 0  9999,2 53530  53.2179  22.3424 0001678 101.7363 258.3817 15.08838940 76840,6917.884,95.438,540.909,538.588,0.0
53530.0,STARLINK-4482,PAYLOAD,2024-01-10 09:41:45,15.088457,0.0001593,53.2178,17.5845,89.9546,270.1629,9.3697e-05,1.204e-05,0.0,0 STARLINK-4482,1 53530U 22101D   24010.40399584  .00001204  00000-0  93697-4 0  9996,2 53530  53.2178  17.5845 0001593  89.9546 270.1629 15.08845700 77002,6917.863,95.437,540.83,538.626,0.0
53530.0,STARLINK-4482,PAYLOAD,2024-01-11 00:00:13,15.08839979,0.0001667,53.2186,14.9089,95.6556,264.4627,3.6728e-05,2.97e-06,0.0,0 STARLINK-4482,1 53530U 22101D   24011.00016120  .00000297  00000-0  36728-4 0  9998,2 53530  53.2186  14.9089 0001667  95.6556 264.4627 15.08839979 77093,6917.88,95.438,540.899,538.592,0.0
53530.0,STARLINK-4482,PAYLOAD,2024-01-11 06:21:46,15.08841712,0.0001687,53.2186,13.7196,94.6419,265.4766,4.3719e-05,4.08e-06,0.0,0 STARLINK-4482,1 53530U 22101D   24011.26511972  .00000408  00000-0  43719-4 0  9993,2 53530  53.2186  13.7196 0001687  94.6419 265.4766 15.08841712 77136,6917.875,95.437,540.907,538.573,0.0
53530.0,STARLINK-4482,PAYLOAD,2024-01-12 03:01:47,15.0884118,0.000184,53.2192,9.8554,102.9963,257.1235,-2.1854e-05,-6.36e-06,0.0,0 STARLINK-4482,1 53530U 22101D   24012.12624304 -.00000636  00000-0 -21854-4 0  9994,2 53530  53.2192   9.8554 0001840 102.9963 257.1235 15.08841180 77267,6917.877,95.437,541.015,538.469,0.0
53530.0,STARLINK-4482,PAYLOAD,2024-01-12 06:12:33,15.08841309,0.0001791,53.2186,9.2604,104.3683,255.7508,-9.8092e-06,-4.44e-06,0.0,0 STARLINK-4482,1 53530U 22101D   24012.25872250 -.00000444  00000-0 -98092-5 0  9999,2 53530  53.2186   9.2604 0001791 104.3683 255.7508 15.08841309 77282,6917.876,95.437,540.98,538.502,0.0
53530.0,STARLINK-4482,PAYLOAD,2024-01-13 04:27:55,15.08859732,0.0001703,53.2182,5.098,80.3383,279.7801,0.00018526,2.663e-05,0.0,0 STARLINK-4482,1 53530U 22101D   24013.18606273  .00002663  00000-0  18526-3 0  9997,2 53530  53.2182   5.0980 0001703  80.3383 279.7801 15.08859732 77429,6917.82,95.436,540.863,538.507,0.0
53530.0,STARLINK-4482,PAYLOAD,2024-01-13 09:14:04,15.08856824,0.0001787,53.2184,4.202,96.2703,263.8493,0.00045674,6.992e-05,0.0,0 STARLINK-4482,1 53530U 22101D   24013.38477870  .00006992  00000-0  45674-3 0  9991,2 53530  53.2184   4.2020 0001787  96.2703 263.8493 15.08856824 77454,6917.829,95.436,540.93,538.458,0.0
53530.0,STARLINK-4482,PAYLOAD,2024-01-14 04:18:44,15.08831264,0.0001538,53.2185,0.6366,100.1155,260.0011,-0.00011474,-2.113e-05,0.0,0 STARLINK-4482,1 53530U 22101D   24014.17968214 -.00002113  00000-0 -11474-3 0  9990,2 53530  53.2185   0.6366 0001538 100.1155 260.0011 15.08831264 77577,6917.907,95.438,540.836,538.708,0.0
53530.0,STARLINK-4482,PAYLOAD,2024-01-14 05:54:07,15.08833369,0.0001582,53.2184,0.3387,101.7217,258.3953,-0.00016378,-2.893e-05,0.0,0 STARLINK-4482,1 53530U 22101D   24014.24591882 -.00002893  00000-0 -16378-3 0  9994,2 53530  53.2184   0.3387 0001582 101.7217 258.3953 15.08833369 77585,6917.901,95.438,540.86,538.671,0.0
53530.0,STARLINK-4482,PAYLOAD,2024-01-15 04:09:31,15.08843038,0.0001543,53.2186,356.1752,103.7115,256.4049,0.00038034,5.771e-05,0.0,0 STARLINK-4482,1 53530U 22101D   24015.17328130  .00005771  00000-0  38034-3 0  9990,2 53530  53.2186 356.1752 0001543 103.7115 256.4049 15.08843038 77726,6917.871,95.437,540.804,538.669,0.0
53530.0,STARLINK-4482,PAYLOAD,2024-01-16 08:46:28,15.0883742,0.000173,53.2186,350.8217,75.5107,284.6077,0.00025324,3.744e-05,0.0,0 STARLINK-4482,1 53530U 22101D   24016.36561219  .00003744  00000-0  25324-3 0  9995,2 53530  53.2186 350.8217 0001730  75.5107 284.6077 15.08837420 77900,6917.888,95.438,540.95,538.556,0.0
53530.0,STARLINK-4482,PAYLOAD,2024-01-17 05:26:29,15.08845975,0.0001658,53.2187,346.9555,89.1014,271.0168,0.00029098,4.347e-05,0.0,0 STARLINK-4482,1 53530U 22101D   24017.22672898  .00004347  00000-0  29098-3 0  9999,2 53530  53.2187 346.9555 0001658  89.1014 271.0168 15.08845975 78039,6917.862,95.437,540.874,538.58,0.0
53530.0,STARLINK-4482,PAYLOAD,2024-01-18 03:41:55,15.08821461,0.0002002,53.218,342.7932,68.9537,291.1669,-4.1649e-06,-3.54e-06,0.0,0 STARLINK-4482,1 53530U 22101D   24018.15411143 -.00000354  00000-0 -41649-5 0  9990,2 53530  53.2180 342.7932 0002002  68.9537 291.1669 15.08821461 78172,6917.937,95.439,541.187,538.417,0.0
53530.0,STARLINK-4482,PAYLOAD,2024-01-18 05:17:18,15.08839603,0.0001863,53.2192,342.4953,66.1853,293.9334,0.00047051,7.208e-05,0.0,0 STARLINK-4482,1 53530U 22101D   24018.22034963  .00007208  00000-0  47051-3 0  9993,2 53530  53.2192 342.4953 0001863  66.1853 293.9334 15.08839603 78187,6917.882,95.438,541.035,538.458,0.0
53530.0,STARLINK-4482,PAYLOAD,2024-01-18 21:11:09,15.08851861,0.0001677,53.2182,339.5255,70.5957,289.5217,0.00060872,9.416e-05,0.0,0 STARLINK-4482,1 53530U 22101D   24018.88274625  .00009416  00000-0  60872-3 0  9995,2 53530  53.2182 339.5255 0001677  70.5957 289.5217 15.08851861 78287,6917.844,95.437,540.869,538.549,0.0
53530.0,STARLINK-4482,PAYLOAD,2024-01-19 06:43:27,15.08869363,0.0001564,53.2182,337.7358,103.2289,256.8877,0.0012899,0.00020317,0.0,0 STARLINK-4482,1 53530U 22101D   24019.28017442  .00020317  00000-0  12899-2 0  9990,2 53530  53.2182 337.7358 0001564 103.2289 256.8877 15.08869363 78340,6917.791,95.436,540.738,538.574,0.0
53530.0,STARLINK-4482,PAYLOAD,2024-01-19 21:01:55,15.08851927,0.0001689,53.218,335.0674,64.693,295.4236,-2.5151e-06,-3.28e-06,0.0,0 STARLINK-4482,1 53530U 22101D   24019.87633554 -.00000328  00000-0 -25151-5 0  9993,2 53530  53.2180 335.0674 0001689  64.6930 295.4236 15.08851927 78436,6917.844,95.437,540.877,538.541,0.0
53530.0,STARLINK-4482,PAYLOAD,2024-01-20 03:23:27,15.08857132,0.0001477,53.218,333.8766,53.2955,306.8173,0.00024462,3.609e-05,0.0,0 STARLINK-4482,1 53530U 22101D   24020.14129318  .00003609  00000-0  24462-3 0  9998,2 53530  53.2180 333.8766 0001477  53.2955 306.8173 15.08857132 78475,6917.828,95.436,540.715,538.671,0.0
53530.0,STARLINK-4482,PAYLOAD,2024-01-20 06:34:13,15.08860302,0.0001248,53.2169,333.2768,89.7776,270.3359,0.00053486,8.239e-05,0.0,0 STARLINK-4482,1 53530U 22101D   24020.27376916  .00008239  00000-0  53486-3 0  9992,2 53530  53.2169 333.2768 0001248  89.7776 270.3359 15.08860302 78495,6917.818,95.436,540.547,538.82,0.0
53530.0,STARLINK-4482,PAYLOAD,2024-01-20 20:52:42,15.08839309,0.000135,53.2178,330.5995,100.1353,259.9791,0.00059821,9.245e-05,0.0,0 STARLINK-4482,1 53530U 22101D   24020.86993312  .00009245  00000-0  59821-3 0  9999,2 53530  53.2178 330.5995 0001350 100.1353 259.9791 15.08839309 78586,6917.883,95.438,540.681,538.814,0.0
53530.0,STARLINK-4482,PAYLOAD,2024-01-21 03:14:14,15.08846493,0.0001358,53.2174,329.4098,104.9323,255.182,0.00088599,0.00013843,0.0,0 STARLINK-4482,1 53530U 22101D   24021.13489267  .00013843  00000-0  88599-3 0  9992,2 53530  53.2174 329.4098 0001358 104.9323 255.1820 15.08846493 78628,6917.861,95.437,540.665,538.786,0.0
53530.0,STARLINK-4482,PAYLOAD,2024-01-21 06:25:00,15.08851452,0.0001278,53.2174,328.8153,107.9057,252.2074,0.00081249,0.0001267,0.0,0 STARLINK-4482,1 53530U 22101D   24021.26737108  .00012670  00000-0  81249-3 0  9998,2 53530  53.2174 328.8153 0001278 107.9057 252.2074 15.08851452 78643,6917.845,95.437,540.594,538.826,0.0
53530.0,STARLINK-4482,PAYLOAD,2024-01-21 20:43:29,15.08845045,0.0001397,53.2175,326.1397,103.3679,256.7469,0.00042671,6.511e-05,0.0,0 STARLINK-4482,1 53530U 22101D   24021.86353570  .00006511  00000-0  42671-3 0  9994,2 53530  53.2175 326.1397 0001397 103.3679 256.7469 15.08845045 78735,6917.865,95.437,540.696,538.764,0.0
53530.0,STARLINK-4482,PAYLOAD,2024-01-22 03:05:01,15.08841297,0.0001453,53.2174,324.9456,114.3114,245.803,0.00031533,4.734e-05,0.0,0 STARLINK-4482,1 53530U 22101D   24022.12849505  .00004734  00000-0  31533-3 0  9992,2 53530  53.2174 324.9456 0001453 114.3114 245.8030 15.08841297 78777,6917.876,95.437,540.747,538.736,0.0
53530.0,STARLINK-4482,PAYLOAD,2024-01-22 06:15:48,15.0884452,0.0001431,53.2183,324.3546,110.6998,249.4148,0.00025057,3.703e-05,0.0,0 STARLINK-4482,1 53530U 22101D   24022.26097486  .00003703  00000-0  25057-3 0  9999,2 53530  53.2183 324.3546 0001431 110.6998 249.4148 15.08844520 78790,6917.867,95.437,540.722,538.742,0.0
53530.0,STARLINK-4482,PAYLOAD,2024-01-23 01:20:26,15.08839606,0.000141,53.2178,320.7852,94.1618,265.9536,0.00016559,2.348e-05,0.0,0 STARLINK-4482,1 53530U 22101D   24023.05585767  .00002348  00000-0  16559-3 0  9992,2 53530  53.2178 320.7852 0001410  94.1618 265.9536 15.08839606 78913,6917.882,95.438,540.722,538.771,0.0
53530.0,STARLINK-4482,PAYLOAD,2024-01-24 02:46:35,15.08853011,0.0001571,53.2184,316.027,79.8925,280.2245,0.00034034,5.135e-05,0.0,0 STARLINK-4482,1 53530U 22101D   24024.11569332  .00005135  00000-0  34034-3 0  9995,2 53530  53.2184 316.0270 0001571  79.8925 280.2245 15.08853011 79072,6917.841,95.437,540.792,538.619,0.0
53530.0,STARLINK-4482,PAYLOAD,2024-01-25 02:37:23,15.08844161,0.0001931,53.2193,311.5731,73.4038,286.7166,0.00015242,2.139e-05,0.0,0 STARLINK-4482,1 53530U 22101D   24025.10929867  .00002139  00000-0  15242-3 0  9999,2 53530  53.2193 311.5731 0001931  73.4038 286.7166 15.08844161 79225,6917.868,95.437,541.069,538.397,0.0
